[
    {
        "Altitude(m)": 566228.7772997707,
        "Argument of Periapsis(deg)": 0.019868973332140504,
        "Eccentricity": 0.0,
        "Inclination(deg)": 53.0,
        "Latitude(deg)": -39.274631423136455,
        "Longitude(deg)": -49.58445170065007,
        "Mean Anomaly(deg)": -127.90702139726726,
        "RAAN(deg)": 194.97043010558406,
        "Satellite Name": "Starlink Shell 1 870",
        "Satellite Number": 870,
        "Semi-Major Axis(m)": 6931778.249405717,
        "Time(s)": 570
    },
    {
        "Altitude(m)": 566391.206510127,
        "Argument of Periapsis(deg)": 0.02021755181165174,
        "Eccentricity": 0.0,
        "Inclination(deg)": 53.0,
        "Latitude(deg)": -39.668558461167784,
        "Longitude(deg)": -48.99707151278575,
        "Mean Anomaly(deg)": -127.28019019371057,
        "RAAN(deg)": 194.96991133550657,
        "Satellite Name": "Starlink Shell 1 870",
        "Satellite Number": 870,
        "Semi-Major Axis(m)": 6931778.249405717,
        "Time(s)": 580
    },
    {
        "Altitude(m)": 566552.3085022006,
        "Argument of Periapsis(deg)": 0.020566130291162974,
        "Eccentricity": 0.0,
        "Inclination(deg)": 53.0,
        "Latitude(deg)": -40.05900845209671,
        "Longitude(deg)": -48.40256359362618,
        "Mean Anomaly(deg)": -126.65335899015382,
        "RAAN(deg)": 194.9693925654291,
        "Satellite Name": "Starlink Shell 1 870",
        "Satellite Number": 870,
        "Semi-Major Axis(m)": 6931778.249405717,
        "Time(s)": 590
    },
    {
        "Altitude(m)": 566712.0205575239,
        "Argument of Periapsis(deg)": 0.020914708770674213,
        "Eccentricity": 0.0,
        "Inclination(deg)": 53.0,
        "Latitude(deg)": -40.445894831529216,
        "Longitude(deg)": -47.80081153620971,
        "Mean Anomaly(deg)": -126.02652778659704,
        "RAAN(deg)": 194.96887379535164,
        "Satellite Name": "Starlink Shell 1 870",
        "Satellite Number": 870,
        "Semi-Major Axis(m)": 6931778.249405717,
        "Time(s)": 600
    },
    {
        "Altitude(m)": 566870.2804311784,
        "Argument of Periapsis(deg)": 0.021263287250185448,
        "Eccentricity": 0.0,
        "Inclination(deg)": 53.0,
        "Latitude(deg)": -40.82912922306518,
        "Longitude(deg)": -47.19170008852334,
        "Mean Anomaly(deg)": -125.3996965830404,
        "RAAN(deg)": 194.96835502527415,
        "Satellite Name": "Starlink Shell 1 870",
        "Satellite Number": 870,
        "Semi-Major Axis(m)": 6931778.249405717,
        "Time(s)": 610
    },
    {
        "Altitude(m)": 567027.0263793861,
        "Argument of Periapsis(deg)": 0.021611865729696686,
        "Eccentricity": 0.0,
        "Inclination(deg)": 53.0,
        "Latitude(deg)": -41.20862142795201,
        "Longitude(deg)": -46.57511489538645,
        "Mean Anomaly(deg)": -124.77286537948368,
        "RAAN(deg)": 194.9678362551967,
        "Satellite Name": "Starlink Shell 1 870",
        "Satellite Number": 870,
        "Semi-Major Axis(m)": 6931778.249405717,
        "Time(s)": 620
    },
    {
        "Altitude(m)": 567182.1971868527,
        "Argument of Periapsis(deg)": 0.02196044420920792,
        "Eccentricity": 0.0,
        "Inclination(deg)": 53.0,
        "Latitude(deg)": -41.58427941802251,
        "Longitude(deg)": -45.950943937735204,
        "Mean Anomaly(deg)": -124.14603417592699,
        "RAAN(deg)": 194.96731748511925,
        "Satellite Name": "Starlink Shell 1 870",
        "Satellite Number": 870,
        "Semi-Major Axis(m)": 6931778.249405717,
        "Time(s)": 630
    },
    {
        "Altitude(m)": 567335.732193864,
        "Argument of Periapsis(deg)": 0.02230902268871916,
        "Eccentricity": 0.0,
        "Inclination(deg)": 53.0,
        "Latitude(deg)": -41.9560093322283,
        "Longitude(deg)": -45.31907646734169,
        "Mean Anomaly(deg)": -123.51920297237032,
        "RAAN(deg)": 194.96679871504176,
        "Satellite Name": "Starlink Shell 1 870",
        "Satellite Number": 870,
        "Semi-Major Axis(m)": 6931778.249405717,
        "Time(s)": 640
    },
    {
        "Altitude(m)": 567487.5713231198,
        "Argument of Periapsis(deg)": 0.022657601168230398,
        "Eccentricity": 0.0,
        "Inclination(deg)": 53.0,
        "Latitude(deg)": -42.32371547710262,
        "Longitude(deg)": -44.67940448030322,
        "Mean Anomaly(deg)": -122.89237176881353,
        "RAAN(deg)": 194.9662799449643,
        "Satellite Name": "Starlink Shell 1 870",
        "Satellite Number": 870,
        "Semi-Major Axis(m)": 6931778.249405717,
        "Time(s)": 650
    },
    {
        "Altitude(m)": 567637.6551063061,
        "Argument of Periapsis(deg)": 0.023006179647741636,
        "Eccentricity": 0.0,
        "Inclination(deg)": 53.0,
        "Latitude(deg)": -42.687300331492395,
        "Longitude(deg)": -44.03182252722928,
        "Mean Anomaly(deg)": -122.26554056525683,
        "RAAN(deg)": 194.9657611748868,
        "Satellite Name": "Starlink Shell 1 870",
        "Satellite Number": 870,
        "Semi-Major Axis(m)": 6931778.249405717,
        "Time(s)": 660
    },
    {
        "Altitude(m)": 567785.9247103443,
        "Argument of Periapsis(deg)": 0.023354758127252868,
        "Eccentricity": 0.0,
        "Inclination(deg)": 53.0,
        "Latitude(deg)": -43.046664555921396,
        "Longitude(deg)": -43.37622754138139,
        "Mean Anomaly(deg)": -121.63870936170004,
        "RAAN(deg)": 194.96524240480932,
        "Satellite Name": "Starlink Shell 1 870",
        "Satellite Number": 870,
        "Semi-Major Axis(m)": 6931778.249405717,
        "Time(s)": 670
    },
    {
        "Altitude(m)": 567932.3219633909,
        "Argument of Periapsis(deg)": 0.023703336606764106,
        "Eccentricity": 0.0,
        "Inclination(deg)": 53.0,
        "Latitude(deg)": -43.401707006955235,
        "Longitude(deg)": -42.71252019785312,
        "Mean Anomaly(deg)": -121.01187815814339,
        "RAAN(deg)": 194.96472363473185,
        "Satellite Name": "Starlink Shell 1 870",
        "Satellite Number": 870,
        "Semi-Major Axis(m)": 6931778.249405717,
        "Time(s)": 680
    },
    {
        "Altitude(m)": 568076.7893804825,
        "Argument of Periapsis(deg)": 0.024051915086275345,
        "Eccentricity": 0.0,
        "Inclination(deg)": 53.0,
        "Latitude(deg)": -43.75232475695175,
        "Longitude(deg)": -42.040604778144015,
        "Mean Anomaly(deg)": -120.38504695458674,
        "RAAN(deg)": 194.9642048646544,
        "Satellite Name": "Starlink Shell 1 870",
        "Satellite Number": 870,
        "Semi-Major Axis(m)": 6931778.249405717,
        "Time(s)": 690
    },
    {
        "Altitude(m)": 568219.2701888974,
        "Argument of Periapsis(deg)": 0.024400493565786583,
        "Eccentricity": 0.0,
        "Inclination(deg)": 53.0,
        "Latitude(deg)": -44.09841311959058,
        "Longitude(deg)": -41.36038905301062,
        "Mean Anomaly(deg)": -119.75821575102995,
        "RAAN(deg)": 194.9636860945769,
        "Satellite Name": "Starlink Shell 1 870",
        "Satellite Number": 870,
        "Semi-Major Axis(m)": 6931778.249405717,
        "Time(s)": 700
    },
    {
        "Altitude(m)": 568359.708353178,
        "Argument of Periapsis(deg)": 0.024749072045297815,
        "Eccentricity": 0.0,
        "Inclination(deg)": 53.0,
        "Latitude(deg)": -44.43986568158853,
        "Longitude(deg)": -40.67178569634862,
        "Mean Anomaly(deg)": -119.13138454747326,
        "RAAN(deg)": 194.96316732449944,
        "Satellite Name": "Starlink Shell 1 870",
        "Satellite Number": 870,
        "Semi-Major Axis(m)": 6931778.249405717,
        "Time(s)": 710
    },
    {
        "Altitude(m)": 568498.0485997895,
        "Argument of Periapsis(deg)": 0.025097650524809053,
        "Eccentricity": 0.0,
        "Inclination(deg)": 53.0,
        "Latitude(deg)": -44.77657434100801,
        "Longitude(deg)": -39.97471220409975,
        "Mean Anomaly(deg)": -118.50455334391646,
        "RAAN(deg)": 194.96264855442197,
        "Satellite Name": "Starlink Shell 1 870",
        "Satellite Number": 870,
        "Semi-Major Axis(m)": 6931778.249405717,
        "Time(s)": 720
    },
    {
        "Altitude(m)": 568634.2364414549,
        "Argument of Periapsis(deg)": 0.02544622900432029,
        "Eccentricity": 0.0,
        "Inclination(deg)": 53.0,
        "Latitude(deg)": -45.1084293525741,
        "Longitude(deg)": -39.26909083065359,
        "Mean Anomaly(deg)": -117.87772214035978,
        "RAAN(deg)": 194.96212978434448,
        "Satellite Name": "Starlink Shell 1 870",
        "Satellite Number": 870,
        "Semi-Major Axis(m)": 6931778.249405717,
        "Time(s)": 730
    },
    {
        "Altitude(m)": 568768.2182011217,
        "Argument of Periapsis(deg)": 0.02579480748383153,
        "Eccentricity": 0.0,
        "Inclination(deg)": 53.0,
        "Latitude(deg)": -45.43531938042067,
        "Longitude(deg)": -38.554850055042174,
        "Mean Anomaly(deg)": -117.25089093680313,
        "RAAN(deg)": 194.96161101426702,
        "Satellite Name": "Starlink Shell 1 870",
        "Satellite Number": 870,
        "Semi-Major Axis(m)": 6931778.249405717,
        "Time(s)": 740
    },
    {
        "Altitude(m)": 568899.9410355585,
        "Argument of Periapsis(deg)": 0.026143385963342765,
        "Eccentricity": 0.0,
        "Inclination(deg)": 53.0,
        "Latitude(deg)": -45.757131558676,
        "Longitude(deg)": -37.83192455042124,
        "Mean Anomaly(deg)": -116.62405973324637,
        "RAAN(deg)": 194.96109224418953,
        "Satellite Name": "Starlink Shell 1 870",
        "Satellite Number": 870,
        "Semi-Major Axis(m)": 6931778.249405717,
        "Time(s)": 750
    }
]